[{"OBJECT_NAME":"KUIPER-00116","OBJECT_ID":"2025-171X","EPOCH":"2026-03-09T11:48:57.908160","MEAN_MOTION":14.79934892,"ECCENTRICITY":6.493e-5,"INCLINATION":51.8999,"RA_OF_ASC_NODE":174.0015,"ARG_OF_PERICENTER":139.5027,"MEAN_ANOMALY":220.5984,"EPHEMERIS_TYPE":0,"CLASSIFICATION_TYPE":"U","NORAD_CAT_ID":65153,"ELEMENT_SET_NO":999,"REV_AT_EPOCH":3264,"BSTAR":0.00082750162,"MEAN_MOTION_DOT":6.093e-5,"MEAN_MOTION_DDOT":0},{"OBJECT_NAME":"ORSTED","OBJECT_ID":"1999-008B","EPOCH":"2026-03-09T17:21:14.075712","MEAN_MOTION":14.51680933,"ECCENTRICITY":0.01330709,"INCLINATION":96.4811,"RA_OF_ASC_NODE":358.8375,"ARG_OF_PERICENTER":145.0719,"MEAN_ANOMALY":215.9303,"EPHEMERIS_TYPE":0,"CLASSIFICATION_TYPE":"U","NORAD_CAT_ID":25635,"ELEMENT_SET_NO":999,"REV_AT_EPOCH":42753,"BSTAR":0.00016967851,"MEAN_MOTION_DOT":7.32e-6,"MEAN_MOTION_DDOT":0}]
